HAWK-6B                 
1 55324U 23011A   26164.96983389  .00005376  00000+0  23250-3 0  9995
2 55324  40.4994  10.8375 0002926 341.5085  18.5617 15.22907751187351
HAWK-6C                 
1 55326U 23011C   26165.82166830  .00004161  00000+0  18183-3 0  9997
2 55326  40.4993   2.7071 0003412 334.6419  25.4223 15.22911950187491
HAWK-6A                 
1 55327U 23011D   26165.82172356  .00004612  00000+0  20061-3 0  9997
2 55327  40.4995   4.3318 0003261 333.0220  27.0419 15.22912450187492
HAWK-7A                 
1 56191U 23054P   26165.75182639  .00005402  00000+0  20442-3 0  9992
2 56191  97.2707  53.1513 0004470  62.8715 297.2980 15.27338732176651
HAWK-7B                 
1 56193U 23054R   26165.75173885  .00005557  00000+0  21022-3 0  9993
2 56193  97.2738  51.4149 0003831  74.4323 285.7339 15.27336648176651
HAWK-7C                 
1 56200U 23054Y   26165.75163066  .00005404  00000+0  20451-3 0  9998
2 56200  97.2712  52.1840 0003833  65.3254 294.8384 15.27338556176653
