OBJECT_NAME,OBJECT_ID,EPOCH,MEAN_MOTION,ECCENTRICITY,INCLINATION,RA_OF_ASC_NODE,ARG_OF_PERICENTER,MEAN_ANOMALY,EPHEMERIS_TYPE,CLASSIFICATION_TYPE,NORAD_CAT_ID,ELEMENT_SET_NO,REV_AT_EPOCH,BSTAR,MEAN_MOTION_DOT,MEAN_MOTION_DDOT
HAWK-6B,2023-011A,2026-06-13T23:16:33.648096,15.22907751,.00029262,40.4994,10.8375,341.5085,18.5617,0,U,55324,999,18735,.23250396E-3,.5376E-4,0
HAWK-6C,2023-011C,2026-06-14T19:43:12.141120,15.22911950,.0003412,40.4993,2.7071,334.6419,25.4223,0,U,55326,999,18749,.18183E-3,.4161E-4,0
HAWK-6A,2023-011D,2026-06-14T19:43:16.915584,15.22912450,.0003261,40.4995,4.3318,333.0220,27.0419,0,U,55327,999,18749,.20061E-3,.4612E-4,0
HAWK-7A,2023-054P,2026-06-14T18:02:37.800096,15.27338732,.000447,97.2707,53.1513,62.8715,297.2980,0,U,56191,999,17665,.20442E-3,.5402E-4,0
HAWK-7B,2023-054R,2026-06-14T18:02:30.236640,15.27336648,.0003831,97.2738,51.4149,74.4323,285.7339,0,U,56193,999,17665,.21022E-3,.5557E-4,0
HAWK-7C,2023-054Y,2026-06-14T18:02:20.889024,15.27338556,.0003833,97.2712,52.1840,65.3254,294.8384,0,U,56200,999,17665,.20451E-3,.5404E-4,0
